HULIANWANG DIGUI-113    
1 66923U 25285J   26061.73043601 -.00000205  00000+0 -17433-3 0  9996
2 66923  50.0096 167.4725 0000042 333.6381  26.4489 13.29331783 11907
HULIANWANG DIGUI-114    
1 66953U 25287A   26061.77018504  .00000057  00000+0  98062-4 0  9990
2 66953  86.4978 318.3466 0001972  81.6775 278.4583 13.24415473 11257
HULIANWANG DIGUI-115    
1 66954U 25287B   26061.76261318  .00000048  00000+0  78054-4 0  9992
2 66954  86.4995 318.3578 0002057  81.2286 278.9081 13.24415504 11252
HULIANWANG DIGUI-116    
1 66955U 25287C   26061.75506671  .00000061  00000+0  10768-3 0  9998
2 66955  86.4934 318.2984 0002053  81.1290 279.0076 13.24415591 11258
HULIANWANG DIGUI-117    
1 66956U 25287D   26061.74754832  .00000077  00000+0  14640-3 0  9992
2 66956  86.4995 318.3512 0001439  23.8495 336.2705 13.24413717 11254
HULIANWANG DIGUI-118    
1 66957U 25287E   26061.73997969  .00000100  00000+0  19968-3 0  9997
2 66957  86.4971 318.3256 0002043  81.1233 279.0132 13.24414996 11251
HULIANWANG DIGUI-119    
1 67059U 25295A   26061.77708937 -.00000061  00000+0  10828-3 0  9992
2 67059  50.0036  48.6911 0000150 355.1515   4.9366 13.51600384 11329
HULIANWANG DIGUI-120    
1 67060U 25295B   26061.46875341 -.00000061  00000+0  10793-3 0  9995
2 67060  50.0047  49.7293 0001169 319.1501  40.9294 13.51973214 11284
HULIANWANG DIGUI-121    
1 67061U 25295C   26061.84497471 -.00000061  00000+0  10857-3 0  9993
2 67061  50.0011  48.3568 0000790 312.6066  47.4749 13.51739032 11330
HULIANWANG DIGUI-122    
1 67062U 25295D   26061.83166317 -.00000060  00000+0  10895-3 0  9996
2 67062  50.0040  48.3122 0000491 287.0373  73.0455 13.52161141 11333
HULIANWANG DIGUI-123    
1 67063U 25295E   26061.52886473 -.00000044  00000+0  13295-3 0  9994
2 67063  50.0042  49.3807 0000347 296.4241  63.6606 13.52068102 11296
HULIANWANG DIGUI-124    
1 67064U 25295F   26061.81876289 -.00000060  00000+0  10948-3 0  9991
2 67064  50.0002  48.2089 0000689 350.5635   9.5234 13.52370348 11330
HULIANWANG DIGUI-125    
1 67065U 25295G   26061.81222310 -.00000060  00000+0  10813-3 0  9993
2 67065  49.9992  48.1670 0001163   6.8822 353.2076 13.52401826 11337
HULIANWANG DIGUI-126    
1 67066U 25295H   26061.80496306 -.00000080  00000+0  77997-4 0  9990
2 67066  49.9997  48.1287 0000792  49.3904 310.7047 13.52351382 11334
HULIANWANG DIGUI-127    
1 67067U 25295J   26061.79439299 -.00000316  00000+0 -27812-3 0  9990
2 67067  50.0026  48.0914 0000792 357.4091   2.6787 13.52264437 11339
HULIANWANG DIGUI-128    
1 67236U 25311A   26061.74894354 -.00000065  00000+0  11859-3 0  9993
2 67236  50.0074 137.3953 0000461 357.6491   2.4382 13.36478286  9184
